{"type":"FeatureCollection","features":[{"type":"Feature","properties":{"adcode":370000,"name":"山东省"},"geometry":{"type":"MultiPolygon","coordinates":[[[[117.792812,34.622934],[117.785695,34.586189],[117.788863,34.560883],[117.787756,34.549602],[117.793454,34.536312],[117.795989,34.519926],[117.784752,34.520075],[117.768223,34.53019],[117.742859,34.534509],[117.694974,34.546419],[117.678817,34.548548],[117.676297,34.530766],[117.667709,34.517069],[117.653447,34.50235],[117.641388,34.494213],[117.636421,34.498135],[117.623646,34.489869],[117.604075,34.491819],[117.597602,34.478181],[117.586702,34.463878],[117.564167,34.464392],[117.5557,34.47328],[117.542162,34.476467],[117.532579,34.46849],[117.507223,34.473776],[117.487411,34.473798],[117.481469,34.467476],[117.480754,34.483175],[117.476158,34.487034],[117.459526,34.485632],[117.445432,34.507271],[117.432221,34.517424],[117.433485,34.521009],[117.420756,34.526184],[117.418463,34.537959],[117.39777,34.547835],[117.396505,34.570351],[117.386325,34.575829],[117.364878,34.585605],[117.358969,34.578659],[117.346992,34.585016],[117.338091,34.583057],[117.319505,34.572022],[117.327145,34.562789],[117.315488,34.566474],[117.297213,34.560002],[117.302569,34.572959],[117.275852,34.564927],[117.2671,34.557814],[117.273961,34.553856],[117.282792,34.556894],[117.297214,34.550081],[117.296663,34.542342],[117.279562,34.53413],[117.262291,34.533938],[117.269312,34.520756],[117.263949,34.51281],[117.268604,34.504693],[117.253536,34.49852],[117.261744,34.481173],[117.257879,34.473798],[117.250302,34.477467],[117.24659,34.487686],[117.236958,34.479689],[117.249355,34.473716],[117.250146,34.463207],[117.242173,34.452243],[117.228904,34.455657],[117.216576,34.451771],[117.21634,34.446906],[117.194438,34.442752],[117.193726,34.435659],[117.160264,34.435762],[117.154014,34.45418],[117.150768,34.481951],[117.14009,34.504963],[117.133921,34.52386],[117.13471,34.539673],[117.145382,34.560231],[117.141743,34.571215],[117.127591,34.586998],[117.117791,34.605585],[117.109336,34.629024],[117.098045,34.649827],[117.089996,34.64839],[117.075645,34.639066],[117.067133,34.639981],[117.056498,34.658623],[117.055866,34.676586],[117.066183,34.695019],[117.071462,34.697313],[117.063187,34.709116],[117.064604,34.714536],[117.055309,34.724821],[117.037439,34.737385],[117.016198,34.760109],[116.990091,34.759243],[116.984113,34.766116],[116.972945,34.764629],[116.971293,34.772269],[116.962401,34.774015],[116.960354,34.786087],[116.946185,34.795598],[116.945711,34.8116],[116.966175,34.812867],[116.973648,34.815924],[116.960585,34.845448],[116.92349,34.843913],[116.92475,34.860683],[116.928375,34.862934],[116.971361,34.869448],[116.961447,34.876524],[116.939797,34.877758],[116.939876,34.874766],[116.916785,34.872415],[116.916941,34.895492],[116.893661,34.905658],[116.87075,34.913467],[116.852722,34.929254],[116.81665,34.930132],[116.810398,34.96608],[116.800274,34.969133],[116.801306,34.937724],[116.806685,34.928803],[116.793399,34.929315],[116.797747,34.938169],[116.796479,34.971256],[116.783591,34.975824],[116.783593,34.960552],[116.776084,34.962632],[116.779958,34.948057],[116.791421,34.944918],[116.792132,34.939553],[116.781461,34.94122],[116.775694,34.917372],[116.759105,34.917239],[116.72967,34.925398],[116.714927,34.926929],[116.700742,34.934774],[116.691524,34.93356],[116.672621,34.940027],[116.670338,34.93401],[116.653088,34.934329],[116.652537,34.929905],[116.63473,34.933497],[116.626531,34.941659],[116.617227,34.940972],[116.60863,34.923732],[116.554819,34.910255],[116.540808,34.910307],[116.517679,34.904797],[116.497312,34.906909],[116.495093,34.901902],[116.475204,34.898116],[116.450177,34.901293],[116.439414,34.896069],[116.439652,34.889307],[116.430397,34.883677],[116.404081,34.853611],[116.400689,34.820842],[116.397537,34.757069],[116.3659,34.750936],[116.360066,34.743595],[116.362827,34.726138],[116.358177,34.716041],[116.371423,34.71898],[116.386175,34.711161],[116.387044,34.704711],[116.379865,34.695554],[116.37955,34.687542],[116.372451,34.685002],[116.372611,34.66889],[116.358814,34.652755],[116.368592,34.640859],[116.366543,34.634364],[116.345339,34.622102],[116.328475,34.621887],[116.319415,34.602119],[116.305387,34.602474],[116.295612,34.608824],[116.280628,34.609873],[116.273213,34.603216],[116.269426,34.585734],[116.260586,34.584874],[116.253718,34.568744],[116.247478,34.566851],[116.242265,34.552896],[116.227958,34.556264],[116.211425,34.576209],[116.193539,34.578527],[116.184594,34.571556],[116.151026,34.554743],[116.141211,34.554191],[116.128866,34.560679],[116.119136,34.573263],[116.112176,34.590706],[116.09558,34.606705],[116.076947,34.609225],[116.049428,34.596391],[116.031939,34.594046],[116.018316,34.603011],[116.004617,34.616914],[115.996037,34.620149],[115.985883,34.616477],[115.979269,34.608393],[115.978563,34.590458],[115.964546,34.583831],[115.940827,34.582893],[115.852883,34.571237],[115.844253,34.56686],[115.832614,34.56902],[115.833328,34.561818],[115.821925,34.559491],[115.796828,34.573648],[115.790337,34.579646],[115.756412,34.588836],[115.712598,34.592236],[115.705815,34.599815],[115.693516,34.600041],[115.691705,34.570211],[115.678859,34.556817],[115.663885,34.558204],[115.638106,34.568991],[115.634006,34.572825],[115.616413,34.576053],[115.604889,34.573385],[115.588301,34.574495],[115.571302,34.571971],[115.555634,34.573512],[115.549221,34.57033],[115.529577,34.574523],[115.509921,34.583768],[115.485822,34.608093],[115.47322,34.626895],[115.455554,34.638242],[115.452306,34.657106],[115.438848,34.675373],[115.44114,34.699498],[115.439002,34.711162],[115.427926,34.725934],[115.431326,34.735138],[115.443351,34.745134],[115.43061,34.777587],[115.42871,34.791088],[115.420802,34.806139],[115.407921,34.808553],[115.410211,34.814051],[115.402548,34.826643],[115.388022,34.832513],[115.373271,34.829491],[115.351041,34.838054],[115.340087,34.846973],[115.323778,34.852253],[115.311329,34.859985],[115.296594,34.85964],[115.283824,34.852441],[115.268917,34.855613],[115.250372,34.846188],[115.237734,34.851025],[115.233624,34.875499],[115.235045,34.884682],[115.243497,34.895341],[115.246418,34.90739],[115.23362,34.912671],[115.199147,34.915008],[115.19693,34.926353],[115.205946,34.944103],[115.216385,34.946329],[115.213379,34.961354],[115.202464,34.959047],[115.19582,34.951705],[115.169152,34.963123],[115.151031,34.958627],[115.151347,34.967595],[115.140666,34.98072],[115.125246,34.984139],[115.127062,35.000228],[115.12216,35.004889],[115.100197,35.001316],[115.069034,35.000926],[115.045795,34.9866],[115.031783,34.982254],[115.02305,34.972493],[115.010304,34.978057],[115.002357,34.989216],[114.964748,34.99133],[114.941282,34.98958],[114.929303,34.981615],[114.918342,34.969671],[114.908478,34.978806],[114.902478,34.990269],[114.884231,34.994889],[114.874824,35.004376],[114.878932,35.022795],[114.864462,35.025315],[114.853786,35.003529],[114.821498,35.010918],[114.841441,35.024254],[114.849747,35.036994],[114.845395,35.042714],[114.828459,35.042927],[114.813659,35.052513],[114.82624,35.074908],[114.855677,35.083752],[114.870783,35.091909],[114.877423,35.09956],[114.878134,35.110435],[114.867062,35.12673],[114.855117,35.138113],[114.836125,35.151849],[114.835491,35.159896],[114.844748,35.17327],[114.856142,35.183051],[114.871089,35.189688],[114.903879,35.195179],[114.922816,35.195454],[114.926995,35.199329],[114.92423,35.248847],[114.949054,35.256032],[114.952124,35.261697],[114.969916,35.262063],[114.970151,35.270793],[114.958029,35.274291],[114.98195,35.302659],[114.999019,35.317656],[115.008773,35.318442],[115.011918,35.340898],[115.019549,35.346624],[115.029303,35.368565],[115.037409,35.377183],[115.051818,35.378659],[115.069468,35.375328],[115.082635,35.393122],[115.078847,35.410195],[115.08563,35.416177],[115.099918,35.404075],[115.108843,35.404241],[115.112001,35.418499],[115.111844,35.400249],[115.120616,35.408852],[115.120457,35.418139],[115.130892,35.421653],[115.161743,35.426264],[115.183664,35.425327],[115.192052,35.420903],[115.203998,35.423365],[115.231513,35.423396],[115.251652,35.435864],[115.266805,35.448563],[115.264989,35.457074],[115.280843,35.464714],[115.301257,35.480194],[115.333165,35.4908],[115.349789,35.49024],[115.351995,35.506636],[115.344349,35.529555],[115.347577,35.540614],[115.354512,35.543327],[115.340013,35.547055],[115.339146,35.553685],[115.35199,35.55476],[115.353249,35.565495],[115.363496,35.559785],[115.364755,35.571047],[115.377214,35.568918],[115.377687,35.57766],[115.383682,35.577329],[115.388415,35.58688],[115.405861,35.603543],[115.410203,35.623947],[115.433364,35.643429],[115.44642,35.660716],[115.455522,35.68084],[115.480079,35.710179],[115.505681,35.727264],[115.518363,35.726489],[115.527476,35.734307],[115.547123,35.73054],[115.556861,35.738879],[115.577432,35.73083],[115.583282,35.73879],[115.613928,35.739478],[115.637435,35.744079],[115.659428,35.751265],[115.687879,35.754215],[115.692528,35.768529],[115.690555,35.789018],[115.698674,35.789045],[115.700644,35.805711],[115.711684,35.802814],[115.714522,35.817166],[115.722174,35.815698],[115.729116,35.833004],[115.747355,35.832995],[115.747118,35.838427],[115.757941,35.838428],[115.767583,35.854241],[115.811105,35.844367],[115.815696,35.852765],[115.83573,35.850168],[115.835254,35.85734],[115.854414,35.858064],[115.859954,35.868811],[115.867076,35.872995],[115.865892,35.858526],[115.87048,35.867326],[115.870558,35.875269],[115.877361,35.880098],[115.877755,35.895615],[115.883607,35.897767],[115.879256,35.909307],[115.866835,35.909536],[115.869604,35.920354],[115.902337,35.927056],[115.904469,35.935965],[115.900834,35.9456],[115.906362,35.960457],[115.952116,35.968133],[115.979524,35.974174],[116.002825,35.973133],[116.03282,35.963333],[116.042901,35.970189],[116.044792,35.9818],[116.04676,35.998992],[116.057002,36.028744],[116.067804,36.025976],[116.07364,36.042428],[116.070246,36.056705],[116.081292,36.071207],[116.085868,36.089271],[116.091,36.091976],[116.093446,36.111855],[116.051555,36.104751],[116.023044,36.072208],[116.010686,36.061329],[115.984161,36.04548],[115.958491,36.041707],[115.93035,36.031609],[115.913779,36.019854],[115.890473,36.026367],[115.863896,36.015502],[115.854082,36.003836],[115.840623,36.005107],[115.831833,36.011118],[115.811562,36.01282],[115.791773,36.007004],[115.774053,35.993795],[115.780934,35.991252],[115.768756,35.981894],[115.768915,35.974528],[115.758559,35.971002],[115.727287,35.966843],[115.712139,35.971433],[115.69298,35.96612],[115.681237,35.955294],[115.678401,35.94449],[115.669732,35.938555],[115.646167,35.929082],[115.636786,35.920228],[115.601751,35.92605],[115.578124,35.921911],[115.542512,35.898159],[115.507486,35.890408],[115.497577,35.888717],[115.482122,35.880771],[115.454077,35.867651],[115.427807,35.838953],[115.426779,35.833763],[115.41184,35.824872],[115.401494,35.80853],[115.364889,35.788767],[115.357481,35.779854],[115.329036,35.796697],[115.329743,35.814296],[115.338091,35.838687],[115.343604,35.860889],[115.33218,35.864638],[115.337614,35.872084],[115.348882,35.869187],[115.358257,35.893926],[115.361407,35.92021],[115.358095,35.929366],[115.348165,35.9374],[115.350448,35.954522],[115.357066,35.971875],[115.380246,35.974314],[115.38987,35.991505],[115.413559,36.004573],[115.437043,36.008723],[115.441474,36.011684],[115.442816,36.047235],[115.435534,36.055594],[115.45358,36.063227],[115.449066,36.071141],[115.453737,36.080244],[115.460389,36.079573],[115.462843,36.092107],[115.467992,36.098019],[115.478291,36.125763],[115.47924,36.139619],[115.47472,36.171626],[115.469962,36.192925],[115.47313,36.209438],[115.469959,36.218751],[115.470511,36.246383],[115.459341,36.250227],[115.462903,36.265195],[115.456645,36.275944],[115.440021,36.273574],[115.430289,36.276139],[115.42238,36.285967],[115.410919,36.29253],[115.416845,36.302367],[115.413288,36.310666],[115.416843,36.32195],[115.408861,36.326296],[115.388492,36.322352],[115.360576,36.308723],[115.353718,36.318525],[115.364356,36.332528],[115.362621,36.3424],[115.343549,36.362889],[115.342521,36.38443],[115.333933,36.39789],[115.318886,36.404921],[115.307541,36.406471],[115.291463,36.413338],[115.306119,36.433431],[115.310925,36.432417],[115.31108,36.453856],[115.294295,36.465745],[115.285467,36.46045],[115.282943,36.469863],[115.287752,36.475927],[115.278763,36.4763],[115.277579,36.486271],[115.270165,36.4868],[115.266929,36.497253],[115.283807,36.497639],[115.290586,36.508682],[115.286643,36.514233],[115.289244,36.523029],[115.282385,36.528341],[115.289085,36.533073],[115.294525,36.525753],[115.30146,36.527229],[115.32525,36.549961],[115.32824,36.582199],[115.331785,36.588695],[115.344469,36.589756],[115.345492,36.59469],[115.334305,36.594952],[115.335407,36.603178],[115.344624,36.606331],[115.338951,36.612081],[115.349035,36.627069],[115.35991,36.621594],[115.372365,36.63249],[115.381827,36.646038],[115.38017,36.655907],[115.400294,36.662833],[115.405978,36.676065],[115.414431,36.686331],[115.440526,36.694217],[115.445274,36.7018],[115.444403,36.71322],[115.453665,36.717005],[115.454852,36.731472],[115.469426,36.743845],[115.472355,36.758432],[115.485432,36.761272],[115.500573,36.770167],[115.517696,36.76361],[115.522926,36.773715],[115.53101,36.772416],[115.53291,36.783912],[115.543685,36.782697],[115.546853,36.775697],[115.555563,36.775594],[115.55477,36.78364],[115.566405,36.775211],[115.578981,36.780911],[115.631725,36.797347],[115.644733,36.807334],[115.660418,36.812269],[115.665778,36.809057],[115.678387,36.812715],[115.686423,36.829066],[115.682718,36.840034],[115.694933,36.860412],[115.694143,36.866612],[115.705416,36.882027],[115.720243,36.893242],[115.729316,36.896632],[115.734683,36.906022],[115.751899,36.902619],[115.759248,36.908695],[115.762802,36.920606],[115.756084,36.924001],[115.756794,36.938904],[115.766912,36.936432],[115.782332,36.952185],[115.791035,36.968331],[115.78589,36.974834],[115.778612,36.970193],[115.780509,36.982654],[115.770385,36.990431],[115.785016,37.005535],[115.802269,37.009831],[115.807414,37.0187],[115.806543,37.028516],[115.820003,37.031971],[115.826178,37.044871],[115.850565,37.060353],[115.849455,37.070722],[115.859351,37.070459],[115.862595,37.083664],[115.873829,37.105209],[115.879759,37.128374],[115.873746,37.138251],[115.874299,37.1516],[115.886636,37.157228],[115.906865,37.178346],[115.899201,37.18898],[115.904176,37.206381],[115.914521,37.213744],[115.915309,37.223099],[115.921151,37.219074],[115.935744,37.227257],[115.94757,37.223215],[115.963719,37.238941],[115.965372,37.245105],[115.958283,37.24958],[115.967182,37.256561],[115.961275,37.265211],[115.969464,37.268413],[115.970488,37.275611],[115.963005,37.285774],[115.965051,37.294997],[115.97576,37.30678],[115.978593,37.318661],[115.969932,37.316936],[115.967253,37.323464],[115.978748,37.32546],[115.970008,37.336695],[115.981187,37.341117],[116.00362,37.34248],[115.994568,37.350139],[116.007791,37.348867],[116.018573,37.359208],[116.025344,37.355653],[116.045979,37.356673],[116.050232,37.368229],[116.066472,37.367247],[116.081541,37.372436],[116.100573,37.36794],[116.110452,37.373426],[116.120652,37.372599],[116.162914,37.383309],[116.179387,37.369155],[116.189681,37.364922],[116.22869,37.360522],[116.245919,37.375869],[116.25587,37.389099],[116.264712,37.38842],[116.267315,37.397714],[116.277178,37.400606],[116.264709,37.413087],[116.269286,37.417533],[116.257287,37.421709],[116.26526,37.425995],[116.244333,37.425204],[116.24141,37.421352],[116.225757,37.423805],[116.221565,37.43353],[116.237376,37.447477],[116.23785,37.455178],[116.224172,37.45894],[116.219029,37.479216],[116.229309,37.478988],[116.235554,37.490698],[116.252542,37.481931],[116.250726,37.478082],[116.270702,37.466167],[116.265728,37.478196],[116.285136,37.484012],[116.280324,37.490367],[116.287185,37.496627],[116.278587,37.499971],[116.291757,37.508047],[116.274563,37.51013],[116.277797,37.516831],[116.272668,37.524015],[116.285605,37.52305],[116.280319,37.53186],[116.285602,37.544822],[116.282131,37.548553],[116.293564,37.55857],[116.293878,37.568798],[116.298688,37.563716],[116.328948,37.573928],[116.313582,37.57923],[116.33005,37.580387],[116.339035,37.569629],[116.337616,37.565151],[116.361732,37.565387],[116.369538,37.559429],[116.37096,37.54567],[116.361972,37.532912],[116.362998,37.525495],[116.376798,37.522701],[116.382715,37.515397],[116.396211,37.508923],[116.408139,37.490077],[116.428217,37.472433],[116.432726,37.476327],[116.440792,37.499672],[116.456307,37.516563],[116.476824,37.520978],[116.493941,37.53709],[116.501391,37.541078],[116.513911,37.559196],[116.532847,37.567772],[116.540211,37.581862],[116.557941,37.595888],[116.550977,37.596232],[116.574786,37.612673],[116.598958,37.624531],[116.625224,37.652122],[116.635312,37.66585],[116.630897,37.675279],[116.635467,37.681726],[116.640827,37.675621],[116.648074,37.676916],[116.658392,37.687151],[116.669571,37.720176],[116.674059,37.728119],[116.69359,37.729943],[116.693039,37.738054],[116.70383,37.734476],[116.718723,37.743554],[116.713047,37.761597],[116.717381,37.765982],[116.733308,37.756159],[116.738357,37.756592],[116.747982,37.769758],[116.747821,37.792255],[116.740167,37.795024],[116.753109,37.80111],[116.761004,37.810598],[116.780358,37.82559],[116.782332,37.842701],[116.788735,37.846264],[116.805975,37.847239],[116.806924,37.842894],[116.822271,37.839959],[116.838016,37.833825],[116.873916,37.843165],[116.91363,37.845349],[116.944599,37.83911],[116.970805,37.840392],[117.002886,37.833107],[117.021128,37.831552],[117.03442,37.83847],[117.068112,37.847805],[117.087505,37.848577],[117.143905,37.838697],[117.157429,37.838918],[117.179185,37.848953],[117.202678,37.84295],[117.253638,37.837496],[117.265236,37.839151],[117.278325,37.845975],[117.296765,37.85156],[117.313936,37.860576],[117.337955,37.861795],[117.358358,37.853228],[117.37554,37.8536],[117.399917,37.842563],[117.417213,37.84632],[117.432153,37.852932],[117.460482,37.889872],[117.474896,37.914028],[117.486464,37.926691],[117.506674,37.942732],[117.514756,37.96603],[117.51824,37.988795],[117.534957,38.010603],[117.539866,38.026223],[117.554354,38.040402],[117.550474,38.056626],[117.558863,38.063102],[117.570177,38.064577],[117.577767,38.070099],[117.599102,38.072471],[117.610786,38.068488],[117.638944,38.071806],[117.659986,38.071928],[117.67338,38.078913],[117.698362,38.075363],[117.723041,38.093089],[117.72446,38.107615],[117.737007,38.122681],[117.762598,38.131182],[117.765918,38.138109],[117.760777,38.157975],[117.765519,38.165372],[117.78806,38.167164],[117.795181,38.174568],[117.783074,38.180058],[117.789955,38.192924],[117.791694,38.207041],[117.799766,38.217076],[117.802457,38.227731],[117.817499,38.235027],[117.841491,38.253341],[117.854869,38.274024],[117.889755,38.301116],[117.887464,38.287452],[117.890786,38.279091],[117.929483,38.254566],[117.991565,38.211237],[118.01266,38.201895],[118.026831,38.205118],[118.038957,38.213185],[118.105863,38.209335],[118.171793,38.185598],[118.210833,38.146172],[118.239465,38.143562],[118.268375,38.137812],[118.32468,38.124231],[118.354078,38.120084],[118.374108,38.119033],[118.384839,38.122407],[118.397944,38.12],[118.414301,38.106423],[118.425371,38.105368],[118.443649,38.123382],[118.455369,38.125806],[118.47724,38.122438],[118.498647,38.113172],[118.507369,38.103947],[118.511255,38.087659],[118.524495,38.072534],[118.528776,38.062857],[118.546761,38.055061],[118.559903,38.059617],[118.592005,38.078435],[118.598321,38.100801],[118.602188,38.128512],[118.620179,38.13775],[118.720582,38.153524],[118.771899,38.15623],[118.805671,38.156941],[118.848012,38.154383],[118.871825,38.149028],[118.902405,38.138816],[118.925763,38.126919],[118.952791,38.109516],[118.9683,38.093495],[118.979478,38.061406],[118.990654,38.01326],[118.99868,37.991514],[119.03928,37.966712],[119.104493,37.920396],[119.114451,37.896085],[119.116747,37.865563],[119.129797,37.827019],[119.155591,37.818286],[119.206795,37.837975],[119.234466,37.877226],[119.257924,37.880743],[119.28625,37.868794],[119.298157,37.844643],[119.303206,37.804526],[119.293754,37.754643],[119.274599,37.691676],[119.256767,37.659659],[119.230462,37.651257],[119.14738,37.654454],[119.112269,37.647047],[119.059323,37.640977],[119.018308,37.641036],[118.982911,37.620148],[118.966627,37.593764],[118.946161,37.55536],[118.934029,37.526433],[118.937343,37.496834],[118.95263,37.454262],[118.967436,37.403677],[118.971688,37.38138],[118.976882,37.377392],[118.997649,37.382655],[119.007011,37.375315],[119.004022,37.37],[118.979873,37.365065],[118.975703,37.359156],[118.981213,37.33883],[118.995454,37.318034],[119.004501,37.312479],[119.034007,37.303647],[119.039438,37.298105],[119.046133,37.276013],[119.048183,37.254125],[119.060946,37.240969],[119.078447,37.238558],[119.085309,37.2567],[119.102361,37.259442],[119.122196,37.254003],[119.128283,37.262445],[119.129467,37.281224],[119.133025,37.287315],[119.151776,37.287343],[119.163886,37.277778],[119.160562,37.273555],[119.151619,37.280382],[119.136586,37.278608],[119.135559,37.261697],[119.122435,37.23486],[119.130975,37.230332],[119.198395,37.279352],[119.20694,37.272562],[119.185101,37.25868],[119.186052,37.25335],[119.196499,37.25301],[119.198557,37.245572],[119.188351,37.220996],[119.186059,37.196904],[119.199512,37.193582],[119.198245,37.209349],[119.201092,37.22245],[119.216279,37.224302],[119.226955,37.221129],[119.238732,37.210745],[119.255635,37.207322],[119.27639,37.211729],[119.290506,37.204347],[119.292557,37.196658],[119.2857,37.176954],[119.285938,37.164128],[119.2913,37.158105],[119.29351,37.141925],[119.302417,37.136053],[119.314555,37.119811],[119.323697,37.11501],[119.336383,37.11662],[119.345366,37.122144],[119.359711,37.125269],[119.41955,37.124642],[119.439644,37.130047],[119.483936,37.133778],[119.484172,37.141668],[119.473231,37.152675],[119.476005,37.155073],[119.487503,37.142913],[119.487504,37.132712],[119.497417,37.127641],[119.513752,37.129721],[119.571035,37.127098],[119.623977,37.141645],[119.673028,37.157423],[119.680755,37.155535],[119.681544,37.143382],[119.719325,37.142923],[119.734721,37.133148],[119.748465,37.146811],[119.76554,37.159804],[119.774952,37.17455],[119.785001,37.184358],[119.80242,37.195772],[119.816675,37.219447],[119.824676,37.225115],[119.859767,37.233417],[119.871801,37.23992],[119.880742,37.251749],[119.853666,37.253147],[119.855645,37.261983],[119.886912,37.263372],[119.890549,37.274952],[119.876941,37.280391],[119.883269,37.293125],[119.883506,37.301756],[119.878124,37.310302],[119.869418,37.312519],[119.864113,37.320426],[119.847719,37.325608],[119.842727,37.336691],[119.832823,37.342437],[119.837337,37.360689],[119.834325,37.370458],[119.838602,37.376069],[119.921908,37.386103],[119.932169,37.392725],[119.94463,37.419397],[119.981036,37.424947],[120.007258,37.442101],[120.059419,37.448163],[120.080726,37.464292],[120.103245,37.469524],[120.138931,37.480946],[120.18923,37.512102],[120.194218,37.523772],[120.2171,37.532014],[120.230787,37.547295],[120.24162,37.555786],[120.202923,37.587778],[120.212343,37.602929],[120.204899,37.615876],[120.209807,37.62028],[120.243432,37.623041],[120.2605,37.628031],[120.267133,37.635989],[120.268395,37.650048],[120.26413,37.657655],[120.239475,37.656865],[120.227689,37.661293],[120.215106,37.671178],[120.210909,37.685742],[120.221989,37.692761],[120.336302,37.692268],[120.362953,37.697012],[120.381099,37.706687],[120.432548,37.740408],[120.442679,37.753674],[120.466843,37.756694],[120.477228,37.75411],[120.513468,37.749788],[120.523299,37.756381],[120.575172,37.760202],[120.590586,37.766896],[120.616879,37.790217],[120.629422,37.795699],[120.652204,37.792344],[120.728416,37.832731],[120.738201,37.83225],[120.749253,37.836672],[120.757626,37.829127],[120.773589,37.830321],[120.792332,37.826905],[120.80697,37.821316],[120.828103,37.820881],[120.86031,37.832277],[120.885612,37.832305],[120.895726,37.823024],[120.910253,37.823378],[120.916882,37.819225],[120.930997,37.821702],[120.941558,37.812714],[120.942899,37.797929],[120.93636,37.792682],[120.938646,37.784851],[120.9481,37.776175],[120.970694,37.761609],[120.990755,37.758229],[121.01105,37.740883],[121.014513,37.730191],[121.032609,37.717638],[121.049928,37.714748],[121.059379,37.716115],[121.063161,37.72418],[121.070255,37.716771],[121.091077,37.721662],[121.134612,37.722042],[121.143313,37.718652],[121.154392,37.705889],[121.154868,37.698054],[121.140865,37.677842],[121.137467,37.660258],[121.15139,37.6564],[121.156535,37.645359],[121.144906,37.627991],[121.144353,37.618879],[121.164612,37.599658],[121.177354,37.593341],[121.210824,37.58222],[121.24623,37.580265],[121.299868,37.582083],[121.349577,37.59519],[121.356354,37.599855],[121.353042,37.615471],[121.339096,37.626787],[121.344058,37.634224],[121.356665,37.633213],[121.369593,37.627727],[121.38087,37.626764],[121.405892,37.608452],[121.431504,37.599792],[121.434352,37.5952],[121.421778,37.589756],[121.405737,37.590223],[121.384502,37.596016],[121.380638,37.590273],[121.390658,37.588839],[121.395791,37.556769],[121.407164,37.546618],[121.431194,37.540212],[121.454624,37.521652],[121.451458,37.501692],[121.45526,37.492892],[121.474117,37.47405],[121.509948,37.461057],[121.527147,37.461702],[121.532299,37.450482],[121.560494,37.439703],[121.566745,37.440784],[121.571252,37.459726],[121.581769,37.466642],[121.594334,37.469268],[121.614151,37.481287],[121.628666,37.492502],[121.649008,37.492353],[121.655392,37.486469],[121.660911,37.472729],[121.742919,37.46662],[121.768125,37.465672],[121.834133,37.470731],[121.882886,37.469374],[121.919307,37.47243],[121.961245,37.488908],[121.974317,37.487604],[121.992106,37.493147],[121.994623,37.505398],[122.008316,37.509126],[122.012328,37.530018],[122.0313,37.528496],[122.040198,37.530656],[122.048705,37.542454],[122.064863,37.53604],[122.070147,37.539443],[122.069514,37.550785],[122.061471,37.561343],[122.064465,37.567721],[122.083716,37.553071],[122.102354,37.54926],[122.118083,37.551884],[122.114366,37.563181],[122.120771,37.566279],[122.128523,37.555423],[122.145458,37.556121],[122.139127,37.549371],[122.145697,37.543275],[122.166439,37.540178],[122.166757,37.533318],[122.158128,37.517993],[122.14942,37.517224],[122.142535,37.510985],[122.131297,37.511287],[122.126948,37.498348],[122.144515,37.492421],[122.148948,37.487627],[122.143883,37.480953],[122.15196,37.458462],[122.160748,37.449069],[122.162255,37.437122],[122.178803,37.430364],[122.180939,37.44077],[122.189567,37.455316],[122.207613,37.454789],[122.215761,37.46242],[122.228336,37.459654],[122.230232,37.468348],[122.236082,37.464502],[122.247855,37.467005],[122.255516,37.459622],[122.272012,37.455922],[122.281321,37.446425],[122.275563,37.441786],[122.275408,37.433011],[122.28085,37.424548],[122.305605,37.422169],[122.307497,37.415772],[122.33208,37.413502],[122.382367,37.418986],[122.388363,37.414097],[122.411735,37.413657],[122.43205,37.419354],[122.459749,37.423457],[122.476066,37.432751],[122.484703,37.431028],[122.482485,37.419386],[122.490411,37.412816],[122.508639,37.409892],[122.548955,37.406225],[122.575689,37.409523],[122.591331,37.420494],[122.601909,37.423472],[122.622023,37.424017],[122.639203,37.42737],[122.644876,37.419181],[122.651964,37.427746],[122.6611,37.423521],[122.655036,37.420871],[122.661809,37.41371],[122.671179,37.41258],[122.6648,37.427841],[122.680076,37.427932],[122.683777,37.42165],[122.699451,37.414157],[122.70213,37.40331],[122.710954,37.395313],[122.693075,37.383342],[122.689767,37.375561],[122.675909,37.37364],[122.670396,37.383027],[122.650945,37.387593],[122.637159,37.385191],[122.622265,37.368919],[122.606886,37.366268],[122.590232,37.34735],[122.58897,37.335663],[122.606889,37.338803],[122.605864,37.330495],[122.589604,37.319204],[122.569298,37.295726],[122.576492,37.286346],[122.566769,37.278419],[122.572463,37.270788],[122.56258,37.260549],[122.580131,37.258143],[122.587872,37.260694],[122.586057,37.247482],[122.59585,37.241635],[122.595851,37.22838],[122.599483,37.220896],[122.619364,37.212168],[122.624253,37.202886],[122.619445,37.190586],[122.601696,37.192508],[122.592304,37.18072],[122.574448,37.182938],[122.568757,37.175683],[122.582669,37.163148],[122.581801,37.152989],[122.576507,37.147207],[122.555155,37.146859],[122.528869,37.152735],[122.496778,37.147981],[122.4883,37.141301],[122.479664,37.128126],[122.476338,37.117076],[122.473092,37.090794],[122.476184,37.071063],[122.475234,37.060332],[122.454722,37.045082],[122.456544,37.038782],[122.483081,37.033624],[122.493859,37.033656],[122.519533,37.039756],[122.544084,37.050392],[122.571062,37.053949],[122.580706,37.042509],[122.57881,37.036842],[122.551369,37.022757],[122.54021,37.004093],[122.540607,36.989722],[122.552324,36.978448],[122.552958,36.968266],[122.541243,36.95586],[122.54196,36.923063],[122.537844,36.913102],[122.527469,36.901005],[122.511704,36.889768],[122.492289,36.885552],[122.479847,36.890953],[122.480639,36.903187],[122.487849,36.911601],[122.478181,36.913452],[122.429178,36.913548],[122.423881,36.908147],[122.441678,36.897539],[122.449594,36.882883],[122.459571,36.878666],[122.452129,36.868493],[122.44081,36.872391],[122.411162,36.858803],[122.398368,36.860002],[122.387634,36.865525],[122.378956,36.864691],[122.381559,36.859371],[122.373438,36.843619],[122.345772,36.834621],[122.337893,36.827914],[122.330565,36.837089],[122.321742,36.829865],[122.29337,36.836556],[122.273418,36.835699],[122.259133,36.841148],[122.245867,36.83943],[122.241127,36.834948],[122.215667,36.84841],[122.191295,36.842333],[122.169839,36.841894],[122.167147,36.851849],[122.176568,36.855745],[122.183692,36.865638],[122.170784,36.893921],[122.159383,36.8919],[122.151072,36.882412],[122.114677,36.8914],[122.112463,36.895037],[122.122186,36.917826],[122.136423,36.937582],[122.131755,36.943608],[122.122658,36.944756],[122.107399,36.938873],[122.101472,36.940949],[122.094285,36.932159],[122.095787,36.921211],[122.088207,36.913421],[122.068637,36.913678],[122.047039,36.904324],[122.048459,36.895048],[122.041291,36.890546],[122.037591,36.871404],[122.032865,36.874894],[122.03239,36.895206],[122.020422,36.908268],[122.017585,36.941403],[122.009083,36.959403],[121.98988,36.95319],[121.978309,36.957938],[121.972878,36.946688],[121.960121,36.937693],[121.922913,36.932004],[121.892983,36.921343],[121.866173,36.915366],[121.858101,36.908879],[121.824612,36.897629],[121.81131,36.891408],[121.785588,36.883773],[121.762813,36.874358],[121.757045,36.865559],[121.758864,36.850361],[121.752701,36.84128],[121.733276,36.834605],[121.721361,36.825813],[121.71363,36.828783],[121.701961,36.821878],[121.665944,36.817302],[121.637017,36.805466],[121.623769,36.797037],[121.624244,36.782986],[121.629687,36.766604],[121.648772,36.727723],[121.646722,36.7236],[121.616122,36.73702],[121.60136,36.737908],[121.594962,36.745359],[121.59654,36.763181],[121.581289,36.756167],[121.565786,36.766002],[121.55154,36.764016],[121.569903,36.745302],[121.569587,36.736769],[121.560726,36.728584],[121.537208,36.734305],[121.527145,36.730714],[121.527303,36.735882],[121.541247,36.741686],[121.542593,36.746135],[121.527539,36.752946],[121.515572,36.749028],[121.512797,36.760714],[121.50265,36.760524],[121.500905,36.770249],[121.477204,36.773063],[121.476015,36.779906],[121.491311,36.791919],[121.523334,36.805262],[121.54124,36.806229],[121.549238,36.816771],[121.565227,36.827202],[121.56032,36.830196],[121.534505,36.823059],[121.525314,36.818393],[121.518023,36.807848],[121.502011,36.803398],[121.499396,36.797428],[121.475222,36.783987],[121.473163,36.770328],[121.455577,36.761915],[121.449165,36.75181],[121.40741,36.747517],[121.388857,36.737386],[121.385229,36.728175],[121.399119,36.725885],[121.405202,36.714145],[121.400307,36.703885],[121.389177,36.698479],[121.369536,36.699258],[121.360391,36.710934],[121.352667,36.712589],[121.313277,36.701681],[121.293736,36.701915],[121.28057,36.699486],[121.269924,36.692282],[121.246959,36.671002],[121.23432,36.667991],[121.215982,36.670902],[121.189879,36.652898],[121.171837,36.654389],[121.156326,36.65083],[121.140978,36.639895],[121.108805,36.621408],[121.072819,36.607136],[121.050521,36.592241],[121.040208,36.579178],[121.023997,36.572836],[121.011095,36.5744],[120.950901,36.575932],[120.924028,36.589663],[120.919846,36.596772],[120.921265,36.613706],[120.90114,36.623345],[120.890398,36.622058],[120.877358,36.626944],[120.842395,36.618427],[120.845403,36.612092],[120.861306,36.605456],[120.880207,36.601305],[120.887321,36.588867],[120.888743,36.579073],[120.908014,36.568316],[120.91914,36.571923],[120.931678,36.565204],[120.957437,36.562627],[120.964601,36.559317],[120.978531,36.545705],[120.979161,36.540602],[120.957993,36.519084],[120.949647,36.50745],[120.953901,36.498599],[120.950279,36.489201],[120.962957,36.477837],[120.958865,36.464217],[120.947683,36.459093],[120.942564,36.44921],[120.93366,36.448058],[120.929875,36.454618],[120.915522,36.455155],[120.90321,36.445949],[120.912762,36.435328],[120.914184,36.42535],[120.92089,36.419874],[120.930431,36.42099],[120.923178,36.410014],[120.91379,36.418712],[120.898714,36.40612],[120.887024,36.389655],[120.891292,36.376092],[120.867421,36.366971],[120.869793,36.373215],[120.850253,36.381842],[120.846452,36.405944],[120.854839,36.412356],[120.854283,36.424506],[120.833628,36.436861],[120.837664,36.441493],[120.838296,36.457623],[120.823732,36.466482],[120.75461,36.462377],[120.751925,36.457873],[120.756824,36.442993],[120.755244,36.434344],[120.746163,36.431086],[120.732035,36.432621],[120.722174,36.422733],[120.721149,36.413721],[120.706641,36.408508],[120.689619,36.390023],[120.695611,36.371092],[120.704912,36.367937],[120.711692,36.360357],[120.721944,36.35966],[120.724785,36.349631],[120.734806,36.338426],[120.739622,36.32799],[120.733387,36.323562],[120.703182,36.328793],[120.68734,36.325436],[120.658343,36.331735],[120.65133,36.322119],[120.661655,36.309288],[120.661026,36.297441],[120.651333,36.288591],[120.650152,36.279806],[120.655038,36.274799],[120.67261,36.281377],[120.681513,36.279022],[120.681122,36.260155],[120.684984,36.251356],[120.676318,36.238871],[120.684434,36.230102],[120.692002,36.203945],[120.6883,36.190553],[120.692399,36.168507],[120.702488,36.164978],[120.702252,36.159244],[120.693583,36.158815],[120.699573,36.152263],[120.700678,36.139623],[120.711477,36.141989],[120.715027,36.134311],[120.707458,36.126485],[120.690907,36.123685],[120.667976,36.129826],[120.646306,36.11791],[120.62762,36.113372],[120.616654,36.119321],[120.607499,36.117589],[120.603235,36.107289],[120.595259,36.101875],[120.574628,36.104005],[120.576208,36.11148],[120.568693,36.1143],[120.562443,36.106009],[120.542489,36.109526],[120.547559,36.097901],[120.542649,36.092151],[120.52149,36.093391],[120.492945,36.086113],[120.474867,36.091476],[120.462582,36.086958],[120.444602,36.072773],[120.436844,36.062979],[120.432095,36.065235],[120.417144,36.054709],[120.410187,36.057132],[120.399282,36.051308],[120.382699,36.051438],[120.384039,36.059118],[120.365101,36.053156],[120.36597,36.044582],[120.360054,36.041155],[120.352877,36.048686],[120.340577,36.04333],[120.332851,36.044437],[120.337817,36.051463],[120.332455,36.054788],[120.319527,36.050932],[120.319763,36.05934],[120.310931,36.059519],[120.302968,36.050072],[120.291057,36.052315],[120.292636,36.045236],[120.281116,36.047071],[120.28514,36.060408],[120.296341,36.071146],[120.306197,36.087458],[120.307616,36.100023],[120.312504,36.107934],[120.321176,36.111473],[120.328584,36.134443],[120.341906,36.155579],[120.351839,36.165817],[120.353101,36.174494],[120.364378,36.177463],[120.35365,36.200041],[120.331809,36.21372],[120.314935,36.232027],[120.292381,36.225287],[120.288279,36.219081],[120.29325,36.20362],[120.308157,36.19613],[120.305241,36.185117],[120.286468,36.185792],[120.275736,36.179184],[120.271551,36.185565],[120.257968,36.182142],[120.255912,36.198286],[120.239788,36.199254],[120.229982,36.189078],[120.21938,36.191167],[120.212254,36.211256],[120.20212,36.211442],[120.176379,36.203732],[120.159111,36.188525],[120.135036,36.173027],[120.137256,36.143272],[120.122772,36.129442],[120.103235,36.127128],[120.110669,36.11376],[120.11154,36.102569],[120.146843,36.095013],[120.156666,36.082461],[120.168708,36.077027],[120.176473,36.06633],[120.18986,36.06405],[120.226831,36.063737],[120.236324,36.060347],[120.235929,36.047732],[120.225567,36.044814],[120.229761,36.030542],[120.218606,36.022281],[120.218528,36.016295],[120.193748,35.995587],[120.20816,35.99824],[120.239965,36.020356],[120.251979,36.024726],[120.260513,36.013924],[120.251427,36.005351],[120.243763,35.991998],[120.242657,35.982489],[120.249929,35.980749],[120.260593,36.000978],[120.26628,35.993855],[120.27378,35.996277],[120.269596,36.004574],[120.286169,36.017501],[120.30447,36.013996],[120.311489,36.002009],[120.300058,35.971721],[120.279625,35.965475],[120.256726,35.96541],[120.246532,35.959299],[120.241474,35.947396],[120.22811,35.941478],[120.217033,35.924865],[120.20421,35.917519],[120.199301,35.910302],[120.197006,35.891949],[120.180056,35.88734],[120.164212,35.888405],[120.166983,35.904249],[120.179023,35.915532],[120.189319,35.933895],[120.205712,35.938335],[120.202781,35.947237],[120.17411,35.936499],[120.162782,35.918256],[120.151536,35.908961],[120.142508,35.90765],[120.136646,35.919224],[120.13744,35.909182],[120.130551,35.905203],[120.120105,35.906488],[120.118682,35.895063],[120.113066,35.888294],[120.096857,35.881685],[120.078689,35.880154],[120.073399,35.885548],[120.057462,35.871148],[120.03114,35.824634],[120.02799,35.805909],[120.036028,35.799076],[120.044147,35.782142],[120.037842,35.77664],[120.032171,35.762942],[120.032251,35.753812],[120.026105,35.752165],[120.015003,35.722205],[120.005867,35.71322],[119.996338,35.720232],[119.976097,35.715419],[119.980901,35.729776],[119.973339,35.739578],[119.96278,35.741189],[119.964828,35.749178],[119.954897,35.759224],[119.932025,35.763567],[119.91979,35.758427],[119.915686,35.737735],[119.92532,35.729081],[119.944256,35.730027],[119.948278,35.725758],[119.947885,35.713296],[119.939763,35.705679],[119.918849,35.696731],[119.905817,35.674524],[119.90724,35.660877],[119.922881,35.650671],[119.920118,35.637591],[119.897442,35.63321],[119.889536,35.628982],[119.872527,35.611207],[119.863264,35.609042],[119.846553,35.622265],[119.839582,35.623797],[119.826195,35.618489],[119.82437,35.64384],[119.819062,35.646431],[119.813202,35.638701],[119.795304,35.626563],[119.796888,35.620347],[119.787309,35.615539],[119.797681,35.609294],[119.795149,35.598803],[119.787311,35.593955],[119.795546,35.582014],[119.780823,35.576181],[119.774808,35.584957],[119.764289,35.577306],[119.757092,35.578442],[119.747449,35.588768],[119.745945,35.617912],[119.724542,35.619022],[119.712547,35.615743],[119.676824,35.590196],[119.656798,35.589501],[119.660427,35.570467],[119.644581,35.537919],[119.633936,35.509742],[119.623442,35.501169],[119.613738,35.459822],[119.607737,35.450177],[119.59494,35.443908],[119.587274,35.433767],[119.574385,35.406916],[119.573517,35.385974],[119.583721,35.376529],[119.581667,35.364302],[119.573836,35.35806],[119.538364,35.348336],[119.534403,35.330185],[119.547397,35.330419],[119.546764,35.324873],[119.533215,35.320845],[119.533059,35.297151],[119.523071,35.304098],[119.514984,35.304157],[119.510542,35.318417],[119.496903,35.322005],[119.470901,35.308555],[119.445394,35.285575],[119.418812,35.255512],[119.405536,35.231836],[119.391881,35.167161],[119.410838,35.167731],[119.411234,35.158459],[119.390303,35.158093],[119.387779,35.143877],[119.391963,35.137991],[119.413213,35.128592],[119.422544,35.121529],[119.426657,35.111723],[119.420884,35.10857],[119.40713,35.111057],[119.397494,35.107133],[119.390704,35.092051],[119.380761,35.089278],[119.368299,35.07907],[119.374609,35.070679],[119.351742,35.073248],[119.344805,35.084299],[119.300201,35.077185],[119.29618,35.093669],[119.281117,35.115641],[119.261707,35.117658],[119.249943,35.123138],[119.23517,35.12342],[119.215091,35.107666],[119.197607,35.111361],[119.165713,35.107583],[119.153288,35.101389],[119.132324,35.096656],[119.123706,35.07657],[119.114696,35.07047],[119.114618,35.058406],[119.10885,35.055376],[119.06789,35.057071],[119.055676,35.052019],[119.031738,35.051827],[119.021585,35.055823],[118.994364,35.053654],[118.986655,35.04881],[118.960212,35.047164],[118.939813,35.041561],[118.923179,35.051646],[118.90582,35.048547],[118.898478,35.042125],[118.880464,35.035038],[118.859985,35.030595],[118.857138,35.026458],[118.859751,34.99401],[118.8539,34.96346],[118.855406,34.944829],[118.824309,34.91196],[118.799782,34.873884],[118.797016,34.846492],[118.763494,34.846948],[118.762783,34.839649],[118.776457,34.828339],[118.771162,34.819638],[118.773534,34.810492],[118.768082,34.796209],[118.751019,34.790417],[118.732075,34.792968],[118.722924,34.787764],[118.73468,34.782132],[118.733024,34.767767],[118.721744,34.769664],[118.71102,34.764751],[118.713781,34.746478],[118.724901,34.746384],[118.734606,34.737835],[118.753709,34.741772],[118.763031,34.739024],[118.77797,34.723019],[118.753239,34.704396],[118.7339,34.694746],[118.714654,34.695216],[118.698652,34.689774],[118.684863,34.679649],[118.67596,34.679419],[118.659019,34.694532],[118.645228,34.6962],[118.628437,34.68817],[118.599634,34.69764],[118.596078,34.715306],[118.56517,34.713639],[118.553616,34.70795],[118.540709,34.707267],[118.533975,34.712549],[118.519791,34.713579],[118.517257,34.693317],[118.502672,34.688056],[118.495301,34.676157],[118.478656,34.671834],[118.462807,34.675204],[118.455204,34.658457],[118.46083,34.644039],[118.469308,34.63814],[118.4682,34.62436],[118.45798,34.626186],[118.447211,34.618596],[118.433517,34.627169],[118.418098,34.591983],[118.422608,34.564168],[118.435268,34.525729],[118.433846,34.508965],[118.425226,34.490046],[118.415658,34.484188],[118.410523,34.474832],[118.405627,34.44738],[118.399624,34.438022],[118.39923,34.428745],[118.389439,34.428089],[118.374288,34.416555],[118.347556,34.418533],[118.346531,34.423895],[118.315318,34.42247],[118.285119,34.425734],[118.283621,34.413447],[118.274311,34.413374],[118.271865,34.40587],[118.236874,34.406908],[118.22541,34.399888],[118.214651,34.407136],[118.212121,34.380318],[118.198747,34.378525],[118.183941,34.381799],[118.177684,34.391483],[118.173647,34.380543],[118.164699,34.382465],[118.171427,34.409828],[118.173167,34.426286],[118.172056,34.454318],[118.134131,34.476345],[118.127009,34.484412],[118.136028,34.498143],[118.159222,34.505925],[118.161834,34.520716],[118.179015,34.545208],[118.157792,34.552455],[118.147895,34.550132],[118.134914,34.55497],[118.131352,34.564186],[118.120594,34.556148],[118.094586,34.565646],[118.073112,34.570681],[118.076504,34.580802],[118.096953,34.594328],[118.108884,34.615269],[118.107145,34.622302],[118.094659,34.627441],[118.088734,34.637435],[118.096789,34.648576],[118.078154,34.656766],[118.07192,34.654552],[118.051575,34.655901],[118.048108,34.651838],[118.014949,34.661379],[118.01251,34.648026],[118.002118,34.64855],[118.001723,34.657144],[117.985192,34.662785],[117.986056,34.671125],[117.957705,34.679669],[117.946121,34.679611],[117.934138,34.666026],[117.904223,34.671353],[117.897588,34.645783],[117.87545,34.646385],[117.872365,34.651399],[117.857885,34.646363],[117.843793,34.648354],[117.841893,34.653531],[117.828829,34.64845],[117.826136,34.65457],[117.814419,34.647272],[117.80009,34.647329],[117.787903,34.652821],[117.790278,34.638804],[117.787906,34.62667],[117.792812,34.622934]],[[115.489492,35.896026],[115.499083,35.899132],[115.504948,35.908062],[115.499557,35.914445],[115.484813,35.908367],[115.489492,35.896026]]],[[[119.738284,35.591413],[119.736469,35.583974],[119.729834,35.595849],[119.733466,35.599749],[119.738284,35.591413]]],[[[120.167871,35.741303],[120.153454,35.744766],[120.150206,35.7517],[120.15361,35.764852],[120.166916,35.785606],[120.175392,35.788543],[120.179594,35.766888],[120.187753,35.757084],[120.182843,35.748635],[120.167871,35.741303]]],[[[120.582852,36.099526],[120.590441,36.090357],[120.574866,36.0916],[120.579769,36.096251],[120.582852,36.099526]]],[[[120.770277,36.237822],[120.77265,36.222173],[120.763245,36.230558],[120.770277,36.237822]]],[[[119.815952,37.308452],[119.813417,37.315883],[119.820467,37.314505],[119.815952,37.308452]]],[[[120.438719,37.770001],[120.430247,37.785607],[120.447902,37.787415],[120.458122,37.785103],[120.447351,37.767881],[120.438719,37.770001]]],[[[120.754063,37.910955],[120.75991,37.895364],[120.755566,37.889756],[120.748062,37.894059],[120.735983,37.907959],[120.722729,37.908641],[120.716655,37.916383],[120.72675,37.920162],[120.720046,37.923089],[120.724304,37.930464],[120.716575,37.930512],[120.717125,37.944716],[120.724776,37.946128],[120.732742,37.954367],[120.741425,37.950654],[120.753034,37.928636],[120.760381,37.922087],[120.754063,37.910955]]],[[[120.677877,37.927576],[120.668659,37.928462],[120.674488,37.936422],[120.673621,37.94392],[120.687882,37.946181],[120.682919,37.930565],[120.677877,37.927576]]],[[[120.626171,37.951376],[120.621755,37.945147],[120.600126,37.956088],[120.593489,37.970011],[120.59728,37.97786],[120.609361,37.98389],[120.627667,37.978275],[120.626171,37.951376]]],[[[120.653761,37.974804],[120.649113,37.963296],[120.639339,37.9641],[120.648165,37.979349],[120.653761,37.974804]]],[[[120.731636,37.970343],[120.727535,37.960682],[120.701513,37.96604],[120.691346,37.973275],[120.687484,37.983102],[120.680628,37.990606],[120.69221,37.99437],[120.711049,37.986533],[120.719723,37.98664],[120.725798,37.973345],[120.731636,37.970343]]],[[[120.636411,38.0606],[120.639958,38.069024],[120.647209,38.068461],[120.64792,38.058337],[120.64059,38.05437],[120.636411,38.0606]]],[[[120.640976,38.131385],[120.632933,38.138558],[120.636087,38.147525],[120.642472,38.148932],[120.648857,38.140895],[120.640976,38.131385]]],[[[120.755297,38.175846],[120.772682,38.171804],[120.78233,38.157928],[120.76644,38.15579],[120.755457,38.158618],[120.745666,38.149531],[120.733193,38.160945],[120.733034,38.173924],[120.73753,38.198223],[120.742581,38.201994],[120.748662,38.194524],[120.755297,38.175846]]],[[[120.838182,38.299925],[120.818948,38.297258],[120.81056,38.288018],[120.797266,38.283322],[120.792044,38.287556],[120.803515,38.311206],[120.811585,38.317382],[120.830344,38.319419],[120.844988,38.309711],[120.838182,38.299925]]],[[[120.851948,38.342569],[120.836437,38.335008],[120.837939,38.355254],[120.851948,38.342569]]],[[[120.872766,35.893692],[120.884228,35.897388],[120.870789,35.888544],[120.872766,35.893692]]],[[[121.383542,36.266096],[121.386302,36.271576],[121.391512,36.263833],[121.383542,36.266096]]],[[[120.959183,36.424517],[120.965086,36.431463],[120.97335,36.428504],[120.985232,36.413181],[120.976656,36.41735],[120.958948,36.413534],[120.94564,36.414689],[120.943828,36.42105],[120.959183,36.424517]]],[[[120.999383,36.488064],[120.983729,36.485056],[120.985067,36.492166],[120.999383,36.488064]]],[[[121.616125,36.713622],[121.618411,36.728485],[121.626459,36.725632],[121.616125,36.713622]]],[[[121.494804,36.736708],[121.479586,36.732418],[121.487273,36.739771],[121.494804,36.736708]]],[[[122.252905,36.755214],[122.2623,36.753769],[122.25559,36.748285],[122.252905,36.755214]]],[[[122.485731,37.448937],[122.477332,37.446174],[122.478599,37.454077],[122.485731,37.448937]]],[[[122.211327,37.496941],[122.178637,37.498633],[122.166998,37.500832],[122.179981,37.514662],[122.183307,37.509234],[122.194865,37.509412],[122.197874,37.501047],[122.211327,37.496941]]],[[[121.515327,37.56433],[121.521668,37.561732],[121.503596,37.551688],[121.502089,37.556045],[121.515327,37.56433]]],[[[120.873339,38.026329],[120.871917,38.017577],[120.867883,38.026913],[120.873339,38.026329]]],[[[120.927901,38.02625],[120.926481,38.034725],[120.943031,38.031745],[120.946262,38.023699],[120.939015,38.019258],[120.927901,38.02625]]],[[[120.916193,38.362419],[120.909329,38.354108],[120.913986,38.344534],[120.901751,38.349205],[120.890455,38.362657],[120.895193,38.371326],[120.910115,38.372854],[120.90917,38.363992],[120.916193,38.362419]]],[[[120.89851,38.381169],[120.893691,38.385912],[120.910902,38.401357],[120.927152,38.390643],[120.927074,38.381703],[120.917294,38.384692],[120.89851,38.381169]]]]}}],"metadata":{"source":"https://geo.datav.aliyun.com/areas_v3/bound/370000_full.json","processing":"approximate GCJ-02 to WGS84","note":"display background only; not a statutory boundary; redistribution terms not confirmed"}}
